company_id,link,title,phone,address,district,email
0,https://www.spyur.am//am/companies/as-tech---advanced-security-technologies/6669,«ԱՍ ԹԵՉ - ԱՆՎՏԱՆԳՈՒԹՅԱՆ ՀԱՄԱԿԱՐԳԵՐ» («ԱՍ ԹԵՔՆՈԼՈՋԻՍ» սահմանափակ պատասխանատվությամբ ընկերություն/ՍՊԸ),"['tel:+37460502428', 'tel:+37491108222']","Հայաստան, 0002, Երևան
Մաշտոցի պող., 24ա շենք",(Կենտրոն վարչ. շրջան),info@astech.am
1,https://www.spyur.am//am/companies/garoondesign-branding-agency/41983,«ԳԱՐՈՒՆ.ԴԻԶԱՅՆ» ԲՐԵՆԴԻՆԳԱՅԻՆ ԳՈՐԾԱԿԱԼՈՒԹՅՈՒՆ,"['tel:+37444417197', 'tel:+37498752226']","Հայաստան, 0010, Երևան
Վազգեն Սարգսյան փող., 26/2 շենք",(Կենտրոն վարչ. շրջան),Hello@garoon.design
2,https://www.spyur.am//am/companies/consigliere-accounting-and-consulting-company/40758,«ԿՈՆՍԻԼՅԵՐԻ» ՀԱՇՎԱՊԱՀԱԿԱՆ ԵՎ ԽՈՐՀՐԴԱՏՎԱԿԱՆ ԸՆԿԵՐՈՒԹՅՈՒՆ,"['tel:+37494750795', 'tel:+37411750755']","Հայաստան, 0005, Երևան
Տիգրան Մեծի պող., 67ա շենք, շինություն 2",(Էրեբունի վարչ. շրջան),anahit.mkrtchyan.cnslr@gmail.com
3,https://www.spyur.am//am/companies/unitech-trade-and-stock-control-automation-equipment-specialty-shop/34635,«ՅՈՒՆԻՏԵՔ» ԱՌԵՎՏՐԻ ԵՎ ՊԱՀԵՍՏԻ ԱՎՏՈՄԱՏԱՑՄԱՆ ՍԱՐՔԱՎՈՐՈՒՄՆԵՐԻ ՄԱՍՆԱԳԻՏԱՑՎԱԾ ԽԱՆՈՒԹ-ՍՐԱՀ,"['tel:+37411535500', 'tel:+37498535500']","Հայաստան, 0025, Երևան
Չարենցի փող., 113/1 շենք",(Կենտրոն վարչ. շրջան),info@unitech.am
4,https://www.spyur.am//am/companies/it-systems-computer-service-center/27817,«ԱՅ ԹԻ ՍԻՍԹԵՄՍ» ՀԱՄԱԿԱՐԳՉԱՅԻՆ ՍՊԱՍԱՐԿՄԱՆ ԿԵՆՏՐՈՆ սահմանափակ պատասխանատվությամբ ընկերություն (ՍՊԸ),"['tel:+37493489113', 'tel:+37499489113']","Հայաստան, 0009, Երևան
Աբովյան փող., 27 շենք, 4-րդ հարկ",(Կենտրոն վարչ. շրջան),info@itsystems.am
5,https://www.spyur.am//am/companies/arakelyan-partners-consulting/33619,«ԱՌԱՔԵԼՅԱՆ ՓԱՐԹՆԵՐՍ ՔՈՆՍԱԼԹԻՆԳ»,"['tel:+37441829009', 'tel:+37410278720', 'tel:+37493729009', 'tel:+37443729009', 'tel:+37495729009']","Հայաստան, 0033, Երևան
Սունդուկյան փող., 7 շենք",(Արաբկիր վարչ. շրջան),info@apconsult.am
6,https://www.spyur.am//am/companies/gpsgamma/38969,«ՋԻՊԻԷՍԳԱՄՄԱ»,['tel:+37496202066'],"Հայաստան, 0012, Երևան
Վաղարշ Վաղարշյան փող., 24/7 շենք",(Արաբկիր վարչ. շրջան),info@gpsgamma.com
8,https://www.spyur.am//am/companies/hard-power-systems/5847,«ՀԱՐԴ ՓԱՈՒԵՐ ՍԻՍՏԵՄՍ» սահմանափակ պատասխանատվությամբ ընկերություն (ՍՊԸ),"['tel:+37410551639', 'tel:+37498551639', 'tel:+37499551639']","Հայաստան, 0005, Երևան
Տիգրան Մեծի պող., 40 շենք",(Էրեբունի վարչ. շրջան),info@hps.am
9,https://www.spyur.am//am/companies/locator/6992,«ԼՈԿԱՏՈՐ» փակ բաժնետիրական ընկերություն (ՓԲԸ),"['tel:+37410285828', 'tel:+37460270101']","Հայաստան, 0014, Երևան
Ադոնցի փող., 8 շենք",(Արաբկիր վարչ. շրջան),info@locator.am
10,https://www.spyur.am//am/companies/velo-sms/40236,"«ՎԵԼՈ ԷՍ ԷՄ ԷՍ» (""VELO SMS"") («ԷԼԴԻԹԻ ԹԵՔՆՈԼՈՋԻ» սահմանափակ պատասխանատվությամբ ընկերություն/ՍՊԸ)",['tel:+37460443310'],"Հայաստան, 0069, Երևան
Ահարոնյան փող., 22 շենք",(Քանաքեռ-Զեյթուն վարչ. շրջան),sales@velosms.com
11,https://www.spyur.am//am/companies/union-of-advanced-technology-enterprises-uate/2980,ԱՌԱՋԱՏԱՐ ՏԵԽՆՈԼՈԳԻԱՆԵՐԻ ՁԵՌՆԱՐԿՈՒԹՅՈՒՆՆԵՐԻ ՄԻՈՒԹՅՈՒՆ (ԱՏՁՄ) հասարակական կազմակերպություն (ՀԿ),['tel:+37411548881'],"Հայաստան, 0015, Երևան
Ոսկերիչների փող., 1 շենք, 7-րդ հարկ («Մերիդիան» էքսպոկենտրոնի շենքում)",(Կենտրոն վարչ. շրջան),info@uate.org
12,https://www.spyur.am//am/companies/dimark-internet-marketing-company/35084,«ԴԻՄԱՐԿ» ԻՆՏԵՐՆԵՏ-ՄԱՐԿԵՏԻՆԳԱՅԻՆ ԸՆԿԵՐՈՒԹՅՈՒՆ,['tel:+37460614614'],"Հայաստան, 0033, Երևան
Մարշալ Բաղրամյան պող., 76/3 շենք",(Արաբկիր վարչ. շրջան),mail@dimark.am
13,https://www.spyur.am//am/companies/eco-step---solar-energy-solutions/42215,«ԷԿՈ ՍՏԵՊ - ԱՐԵՎԱՅԻՆ ԷՆԵՐԳԻԱՅԻ ԼՈՒԾՈՒՄՆԵՐ»,['tel:+37477388338'],"Հայաստան, 0076, Երևան
Նոր Նորքի 4-րդ զանգված, Գայի պող., 51 շենք, տարածք 46",(Նոր Նորք վարչ. շրջան),info@ecostep.am
14,https://www.spyur.am//am/companies/datacom/42845,«ԴԵՅԹԱՔՈՄ»,"['tel:+37455602702', 'tel:+37412602702']","Հայաստան, Երևան",,hello@datacom.am
15,https://www.spyur.am//am/companies/codewave/52455,«ԿՈԴՎԵՅՎ» սահմանափակ պատասխանատվությամբ ընկերություն (ՍՊԸ),['tel:+37491090907'],"Հայաստան, 0054, Երևան
Սասնա Ծռեր փող., 2/2 շենք, շինություն 1",(Դավթաշեն վարչ. շրջան),info@codewave.am
16,https://www.spyur.am//am/companies/datanet/52619,«ԴԵՅԹԱՆԵԹ» սահմանափակ պատասխանատվությամբ ընկերություն (ՍՊԸ),"['tel:+37443333376', 'tel:+37455444431']","Հայաստան, 0018, Երևան
Մովսես Խորենացու փող., 33/7 շենք",(Կենտրոն վարչ. շրջան),info@datanet.am
17,https://www.spyur.am//am/companies/base-studio/39880,«ԲԵՅՍ ՍՏՈՒԴԻՈ»,['tel:+37498750555'],"Հայաստան, 0028, Երևան
Քեռու փող., 83/2 շենք",(Արաբկիր վարչ. շրջան),info@itbase.am
18,https://www.spyur.am//am/companies/master-holding-marketing-and-programming-company/51431,«ՄԱՍՏԵՐ ՀՈԼԴԻՆԳ» ՄԱՐՔԵԹԻՆԳԱՅԻՆ ԵՎ ԾՐԱԳՐԱՎՈՐՄԱՆ ԸՆԿԵՐՈՒԹՅՈՒՆ,"['tel:+37496005910', 'tel:+37444590010']","Հայաստան, 0002, Երևան
Թումանյան փող., 38 շենք",(Կենտրոն վարչ. շրջան),info@masterholding.am
19,https://www.spyur.am//am/companies/art-vr-lab/53171,«ԱՐՏ ՎԻԱՐ ԼԱԲ»,['tel:+37441591111'],"Հայաստան, 0010, Երևան
Փավստոս Բուզանդի փող., 15 շենք",(Կենտրոն վարչ. շրջան),info@artvrlab.com
20,https://www.spyur.am//am/companies/gnc-alfa-telecommunication-company/7392,«ՋԻԷՆՍԻ-ԱԼՖԱ» ՀԵՌԱՀԱՂՈՐԴԱԿՑԱԿԱՆ ԸՆԿԵՐՈՒԹՅՈՒՆ,"['tel:+37460464646', 'tel:+37412464646']","Հայաստան, 2201, Կոտայքի մարզ, Աբովյան
Խաղաղության փող., 1 շենք",(Աբովյան համայնք),info@rtarmenia.am
21,https://www.spyur.am//am/companies/redinet/4727,«ՌԵԴԻՆԵՏ» փակ բաժնետիրական ընկերություն (ՓԲԸ),['tel:+37410249106'],"Հայաստան, 0014, Երևան
Ազատության պող., 24/7-24/8 շենք",(Քանաքեռ-Զեյթուն վարչ. շրջան),redinet@redinet.am
22,https://www.spyur.am//am/companies/ucom-telecommunication-company/5887,«ՅՈՒՔՈՄ» ՀԵՌԱՀԱՂՈՐԴԱԿՑՈՒԹՅԱՆ ԸՆԿԵՐՈՒԹՅՈՒՆ փակ բաժնետիրական ընկերություն (ՓԲԸ),['tel:+37411444444'],"Հայաստան, 0069, Երևան
Դավիթ Անհաղթի փող., 8/4 շենք",(Քանաքեռ-Զեյթուն վարչ. շրջան),444@ucom.am
23,https://www.spyur.am//am/companies/melinet/5846,«ՄԵԼԻՆԵԹ» սահմանափակ պատասխանատվությամբ ընկերություն (ՍՊԸ),"['tel:+37460442442', 'tel:+37495171006', 'tel:+37499507711']","Հայաստան, 0014, Երևան
Մամիկոնյանց փող., 29 շենք, բն.29ա",(Արաբկիր վարչ. շրջան),info@melinet.net
24,https://www.spyur.am//am/companies/noventiq/6914,«ՆՈՎԵՆՏԻՔ» սահմանափակ պատասխանատվությամբ ընկերություն (ՍՊԸ),"['tel:+37411555115', 'tel:+37411555005']","Հայաստան, 0019, Երևան
Խնկո-Ապոր փող., 1 շենք",(Արաբկիր վարչ. շրջան),info.am@softline.com
25,https://www.spyur.am//am/companies/f-net-telecom/28367,«ԷՖ ՆԵԹ ՏԵԼԵԿՈՄ»,['tel:+37411571616'],"Հայաստան, 0018, Երևան
Զավարյան փող., 57/4 շենք",(Կենտրոն վարչ. շրջան),info@fnet.com
27,https://www.spyur.am//am/companies/tel-cell/5767,«ԹԵԼ-ՍԵԼ» բաց բաժնետիրական ընկերություն (ԲԲԸ),"['tel:+37460272222', 'tel:+37460272223']","Հայաստան, 0033, Երևան
Հակոբ Հակոբյան փող., 3 շենք, 3-րդ հարկ (հիմնական մասնաշենքի 1-ին սեկցիայում)",(Արաբկիր վարչ. շրջան),info@telcell.am
28,https://www.spyur.am//am/companies/nikita-mobile/5474,«ՆԻԿԻՏԱ ՄՈԲԱՅԼ» սահմանափակ պատասխանատվությամբ ընկերություն (ՍՊԸ),"['tel:+37410512888', 'tel:090000909']","Հայաստան, 0014, Երևան
Հրաչյա Ներսիսյան փող. փակուղի, 1 շենք, տարածք 103",(Քանաքեռ-Զեյթուն վարչ. շրջան),info@nikita.am
29,https://www.spyur.am//am/companies/lsoft/2133,«ԼՍՈՖՏ» սահմանափակ պատասխանատվությամբ ընկերություն (ՍՊԸ),['tel:+37460656200'],"Հայաստան, 0010, Երևան
Փավստոս Բուզանդի փող., 1/3 շենք, 7-րդ հարկ",(Կենտրոն վարչ. շրջան),info@lsoft.am
30,https://www.spyur.am//am/companies/studio-one/7072,«ՍՏՈՒԴԻՈ ՈՒԱՆ»,['tel:+37460522378'],"Հայաստան, 0009, Երևան
Մաշտոցի պող., 45ա շենք",(Կենտրոն վարչ. շրջան),info@studio-one.am
31,https://www.spyur.am//am/companies/it-spark/25246,«ԻՏՍՊԱՐԿ» սահմանափակ պատասխանատվությամբ ընկերություն (ՍՊԸ),"['tel:+37411710101', 'tel:+37444720101']","Հայաստան, 0078, Երևան
Հալաբյան փող., 65/5 շենք, 1-ին հարկ («ՌեԱրմենիա» բիզնես-կենտրոնի շենքում)",(Աջափնյակ վարչ. շրջան),Info@ats.am
32,https://www.spyur.am//am/companies/vtg-software/25945,«ՎԻԹԻՋԻ ՍՈՖԹՈՒԵՐ» սահմանափակ պատասխանատվությամբ ընկերություն (ՍՊԸ),['tel:+37411200371'],"Հայաստան, 0015, Երևան
Մաշտոցի պող., 3 շենք, բն.25",(Կենտրոն վարչ. շրջան),info@vtgsoftware.com
33,https://www.spyur.am//am/companies/ucraft/35831,"«ՅՈՒՔՐԱՖԹ» (""UCRAFT"")",['tel:+37411546000'],"Հայաստան, 0011, Երևան
Նորք, Գարեգին Հովսեփյան փող., 20 շենք",(Նորք-Մարաշ վարչ. շրջան),support@ucraft.com
34,https://www.spyur.am//am/companies/special/52527,«ՍՊԵՍԻԱԼ» սահմանափակ պատասխանատվությամբ ընկերություն (ՍՊԸ),"['tel:+37455094388', 'tel:+37477211288']","Հայաստան, 0065, Երևան
Տիչինայի փող., 43/1 շենք",(Մալաթիա-Սեբաստիա վարչ. շրջան),info@rs-group.am
35,https://www.spyur.am//am/companies/gurus-contract-research-organization-cro/46265,«ԳՈՒՐՈՒՍ» ՊԱՅՄԱՆԱԳՐԱՅԻՆ ՀԵՏԱԶՈՏԱԿԱՆ ԿԱԶՄԱԿԵՐՊՈՒԹՅՈՒՆ սահմանափակ պատասխանատվությամբ ընկերություն (ՍՊԸ),['tel:+37411585555'],"Հայաստան, 0014, Երևան
Ահարոնյան փող., 51 շենք",(Քանաքեռ-Զեյթուն վարչ. շրջան),info@thegurus.am
36,https://www.spyur.am//am/companies/dom-daniel/5461,«ԴՈՄ-ԴԵՆԻԵԼ» սահմանափակ պատասխանատվությամբ ընկերություն (ՍՊԸ),"['tel:+37410502999', 'tel:+37491411659']","Հայաստան, 0019, Երևան
Մարշալ Բաղրամյան պող., 17 շենք, 2-րդ հարկ",(Կենտրոն վարչ. շրջան),info@dom-daniel.com
37,https://www.spyur.am//am/companies/globbing/36064,«ԳԼՈԲԲԻՆԳ» («ԳԼՈԲԱԼ ՇԻՓՓԻՆԳ» սահմանափակ պատասխանատվությամբ ընկերություն/ՍՊԸ),['tel:+37460616616'],"Հայաստան, 0051, Երևան
Հրաչյա Քոչարի փող., 44/53 շենք",(Արաբկիր վարչ. շրջան),info@globbing.com
40,https://www.spyur.am//am/companies/mobbis/5406,«ՄՈԲԲԻՍ» սահմանափակ պատասխանատվությամբ ընկերություն (ՍՊԸ),"['tel:+37460530355', 'tel:+37499530355']","Հայաստան, 0052, Երևան
Ծարավ Աղբյուրի փող., 55/5 շենք, տարածք 323",(Ավան վարչ. շրջան),info@mobbis.mobi
41,https://www.spyur.am//am/companies/sahak-service-computer-service-center/6181,«ՍԱՀԱԿ-ՍԵՐՎԻՍ» ՀԱՄԱԿԱՐԳԻՉՆԵՐԻ ՍՊԱՍԱՐԿՄԱՆ ԿԵՆՏՐՈՆ,"['tel:+37412203203', 'tel:+37411203203']","Հայաստան, 0033, Երևան
Մարշալ Բաղրամյան պող., 69 շենք",(Արաբկիր վարչ. շրջան),info@sahak.am
42,https://www.spyur.am//am/companies/step-logic-yug/6249,«ՍՏԵՊ ԼՈՋԻԿ ՅՈՒԳ» սահմանափակ պատասխանատվությամբ ընկերություն (ՍՊԸ),['tel:+37460747475'],"Հայաստան, 0015, Երևան
Արգիշտիի փող., 7 շենք, 4-րդ հարկ (Մոսկվայի տան շենքում)",(Կենտրոն վարչ. շրջան),info@steplogic.am
43,https://www.spyur.am//am/companies/soft-time/28366,«ՍՈՖԹ ԹԱՅՄ» սահմանափակ պատասխանատվությամբ ընկերություն (ՍՊԸ),"['tel:+37410505105', 'tel:+37494818501']","Հայաստան, 0009, Երևան
Սարմենի փող., 1 շենք",(Կենտրոն վարչ. շրջան),info@softtime.am
44,https://www.spyur.am//am/companies/praemium-ra/39982,«ՓՐԱԵՄԻՈՒՄ ՌԱ»,['tel:+37495270698'],"Հայաստան, 0070, Երևան
Ալեք Մանուկյան փող., 9 շենք, 3-րդ հարկ (Ամերիկյան համալսարանի բիզնես-կենտրոնի շենքում)",(Կենտրոն վարչ. շրջան),support@praemium.com.au
45,https://www.spyur.am//am/companies/avromic/40066,«ԱՎՌՈՄԻԿ» սահմանափակ պատասխանատվությամբ ընկերություն (ՍՊԸ),['tel:+37444431431'],"Հայաստան, 0005, Երևան
Արցախի փող., 23 շենք, տարածք 26/1",(Էրեբունի վարչ. շրջան),support@avromic.com
46,https://www.spyur.am//am/companies/cybersec/37125,«ԿԻԲԵՐՍԵԿ» սահմանափակ պատասխանատվությամբ ընկերություն (ՍՊԸ),['tel:+37460449994'],"Հայաստան, 0010, Երևան
Խանջյան փող., 11 շենք",(Կենտրոն վարչ. շրջան),info@cybersec.am
47,https://www.spyur.am//am/companies/zuck-independent-agency/41219,«ՑՈՒԿ ԻՆԴԻՓԵՆԴԵՆԹ ԷՅՋՆՍԻ» սահմանափակ պատասխանատվությամբ ընկերություն (ՍՊԸ),"['tel:+37411388633', 'tel:+37495388633']","Հայաստան, 0033, Երևան
Մարշալ Բաղրամյան պող., 59 շենք, 4-րդ հարկ",(Արաբկիր վարչ. շրջան),info@zuckagency.com
48,https://www.spyur.am//am/companies/at-automation/34567,«ԷՅ ԹԻ ԱՈՒԹՈՄԵՅՇՆ» սահմանափակ պատասխանատվությամբ ընկերություն (ՍՊԸ),"['tel:+37411707757', 'tel:+37491367699']","Հայաստան, 0012, Երևան
Վաղարշ Վաղարշյան փող., 12ա շենք, 2-րդ հարկ, սեն.210",(Արաբկիր վարչ. շրջան),info@atautomation.am
50,https://www.spyur.am//am/companies/clinsoft/45905,«ՔԼԻՆՍՈՖԹ» սահմանափակ պատասխանատվությամբ ընկերություն (ՍՊԸ),['tel:+37444659009'],"Հայաստան, 0011, Երևան
Նորք, Գարեգին Հովսեփյան փող., 26/8 շենք",(Նորք-Մարաշ վարչ. շրջան),info@clinsoftcsd.com
51,https://www.spyur.am//am/companies/infosec/49326,«ԻՆՖՈՍԵԿ» սահմանափակ պատասխանատվությամբ ընկերություն (ՍՊԸ),['tel:+37460666666'],"Հայաստան, 0009, Երևան
Իսահակյան փող., 28 շենք, 3-րդ հարկ",(Կենտրոն վարչ. շրջան),info@infosec.am
52,https://www.spyur.am//am/companies/constant-consulting/27564,«ԿՈՆՍՏԱՆՏ ԿՈՆՍԱԼԹԻՆԳ» սահմանափակ պատասխանատվությամբ ընկերություն (ՍՊԸ),"['tel:+37441102428', 'tel:+37477626572']","Հայաստան, 0002, Երևան
Ամիրյան փող., 24/28 շենք",(Կենտրոն վարչ. շրջան),info@constant.am
53,https://www.spyur.am//am/companies/numlock/53658,«ՆԱՄԼՈՔ» սահմանափակ պատասխանատվությամբ ընկերություն (ՍՊԸ),['tel:+37460747476'],"Հայաստան, 0015, Երևան
Արգիշտիի փող., 7 շենք, սեն.502/1",(Կենտրոն վարչ. շրջան),info@numlock.am
54,https://www.spyur.am//am/companies/armenian-software-armsoft/1457,"«ՀԱՅԿԱԿԱՆ ԾՐԱԳՐԵՐ» (""ARMSOFT"") սահմանափակ պատասխանատվությամբ ընկերություն (ՍՊԸ)",['tel:+37460690901'],"Հայաստան, 0025, Երևան
Չարենցի փող., 1 շենք, 10-րդ հարկ",(Կենտրոն վարչ. շրջան),armsoft@armsoft.am
55,https://www.spyur.am//am/companies/irtek-legal-information-center/2373,«ԻՐՏԵԿ» ԻՐԱՎԱԿԱՆ ՏԵՂԵԿԱՏՎԱԿԱՆ ԿԵՆՏՐՈՆ փակ բաժնետիրական ընկերություն (ՓԲԸ),"['tel:+37411322080', 'tel:+37410322080', 'tel:+37491200059']","Հայաստան, 0033, Երևան
Ավետ Ավետիսյան փող., 63 շենք, տարածք 42/1 (մուտքը՝ Վաղարշյան փող. կողմից)",(Արաբկիր վարչ. շրջան),info@irtek.am
56,https://www.spyur.am//am/companies/web-internet-provider/3209,«ՎԵԲ» ԻՆՏԵՐՆԵՏ-ԾԱՌԱՅՈՒԹՅՈՒՆՆԵՐԻ ՄԱՏԱԿԱՐԱՐ սահմանափակ պատասխանատվությամբ ընկերություն (ՍՊԸ),['tel:+37460460222'],"Հայաստան, 0014, Երևան
Կոմիտասի պող., 60 շենք",(Արաբկիր վարչ. շրջան),info@web.am
58,https://www.spyur.am//am/companies/webmaker-studio/25714,«ՎԵԲՄԵՅՔԵՐ ՍՏՈՒԴԻՈ»,"['tel:+37460705050', 'tel:+37493544014']","Հայաստան, 0025, Երևան
Չարենցի փող., 21 շենք",(Կենտրոն վարչ. շրջան),studio@webmaker.am
59,https://www.spyur.am//am/companies/telecom-armenia/1217,«ՏԵԼԵԿՈՄ ԱՐՄԵՆԻԱ» բաց բաժնետիրական ընկերություն (ԲԲԸ),['tel:+37410410410'],"Հայաստան, 0014, Երևան
Ազատության պող., 24/1 շենք",(Արաբկիր վարչ. շրջան),info@team.am
60,https://www.spyur.am//am/companies/informatic-solution-banking-system-maintenance-center/3313,«ԻՆՖՈՐՄԱՏԻԿ ՍՈԼՈՒՇՆ» ԲԱՆԿԱՅԻՆ ՀԱՄԱԿԱՐԳԵՐԻ ՏԵԽՆԻԿԱԿԱՆ ՍՊԱՍԱՐԿՄԱՆ ԿԵՆՏՐՈՆ,['tel:+37460830303'],"Հայաստան, 0010, Երևան
Հանրապետության փող., 22 շենք",(Կենտրոն վարչ. շրջան),info@informaticssolution.com
61,https://www.spyur.am//am/companies/synopsys-armenia/3672,«ՍԻՆՈՓՍԻՍ ԱՐՄԵՆԻԱ» փակ բաժնետիրական ընկերություն (ՓԲԸ),['tel:+37410492100'],"Հայաստան, 0026, Երևան
Արշակունյաց պող., 41",(Շենգավիթ վարչ. շրջան),info@synopsis.com
63,https://www.spyur.am//am/companies/idram-internet-payment-system/6558,«ԻԴՐԱՄ» ԻՆՏԵՐՆԵՏ-ՎՃԱՐԱՅԻՆ ՀԱՄԱԿԱՐԳ,['tel:+37460700700'],"Հայաստան, 0010, Երևան
Նալբանդյան փող., 48/1 շենք («Սախարով» բիզնես-կենտրոնի շենքում)",(Կենտրոն վարչ. շրջան),info@idram.am
66,https://www.spyur.am//am/companies/armenian-card-arca-card-payment-system/2991,«ԱՐՄԵՆԻԱՆ ՔԱՐԴ» («ԱՐՔԱ») ՔԱՐՏԵՐՈՎ ՎՃԱՐՈՒՄՆԵՐԻ ՀԱՄԱԿԱՐԳ փակ բաժնետիրական ընկերություն (ՓԲԸ),['tel:+37410592222'],"Հայաստան, 0010, Երևան
Մովսես Խորենացու փող., 15 շենք («Էլիտ Պլազա» բիզնես-կենտրոնի շենքում)",(Կենտրոն վարչ. շրջան),info@arca.am
68,https://www.spyur.am//am/companies/instigate-design/4949,«ԻՆՍՏԻԳԵՅԹ ԴԻԶԱՅՆ» փակ բաժնետիրական ընկերություն (ՓԲԸ),['tel:+37460510710'],"Հայաստան, 0052, Երևան
Ծարավ Աղբյուրի փող., 134/1 շենք",(Քանաքեռ-Զեյթուն վարչ. շրջան),info@instigatedesign.com
69,https://www.spyur.am//am/companies/paradox/7009,«ՊԱՐԱԴՈՔՍ»,"['tel:+37493041002', 'tel:+37460434404']","Հայաստան, 0023, Երևան
Արշակունյաց պող., 2 շենք, 4-րդ հարկ, սեն.431",(Կենտրոն վարչ. շրջան),info@paradox.am
70,https://www.spyur.am//am/companies/scancity-trade-automation-equipment-specialized-shop/25557,«ՍԿԱՆՍԻԹԻ» ԱՌԵՎՏՐԻ ԱՎՏՈՄԱՏԱՑՄԱՆ ՍԱՐՔԱՎՈՐՈՒՄՆԵՐԻ ՄԱՍՆԱԳԻՏԱՑՎԱԾ ԽԱՆՈՒԹ-ՍՐԱՀ,"['tel:+37410532723', 'tel:+37499365016']","Հայաստան, 0015, Երևան
Սուրբ Գրիգոր Լուսավորչի փող., 12 շենք, տարածք 113",(Կենտրոն վարչ. շրջան),info@scancity.am
71,https://www.spyur.am//am/companies/zealous/29276,«ԶԵԼԸՍ» փակ բաժնետիրական ընկերություն (ՓԲԸ),"['tel:+37460445500,2001']","Հայաստան, 0052, Երևան
Ծարավ Աղբյուրի փող., 134/1 շենք",(Քանաքեռ-Զեյթուն վարչ. շրջան),letsgo@zealous.tech
72,https://www.spyur.am//am/companies/infoexpert/3679,«ԻՆՖՈԷՔՍՊԵՐՏ»,['tel:+37412533361'],"Հայաստան, 0033, Երևան
Վիկտոր Համբարձումյան փող., 113 շենք",(Արաբկիր վարչ. շրջան),info@infoexpert.am
74,https://www.spyur.am//am/companies/gs-monitoring/27592,«ԳՍ ՄՈՆԻԹՈՐԻՆԳ» սահմանափակ պատասխանատվությամբ ընկերություն (ՍՊԸ),"['tel:+37443300900', 'tel:+37491409489', 'tel:+37441111104']","Հայաստան, 0014, Երևան
Վահե Վահյան փող., 33 շենք",(Քանաքեռ-Զեյթուն վարչ. շրջան),info@gs-monitoring.com
75,https://www.spyur.am//am/companies/helix-consulting/86760,«ՀԵԼԻՔՍ ԿՈՆՍԱԼՏԻՆԳ» սահմանափակ պատասխանատվությամբ ընկերություն (ՍՊԸ),['tel:+37460508287'],"Հայաստան, 0010, Երևան
Պուշկինի փող., 38/1 շենք, 3-րդ հարկ",(Կենտրոն վարչ. շրջան),info@helix.am
76,https://www.spyur.am//am/companies/g-soft/30021,«ՋԻ ՍՈՖՏ» սահմանափակ պատասխանատվությամբ ընկերություն (ՍՊԸ),"['tel:+37443610808', 'tel:+37460610808', 'tel:+37496639394']","Հայաստան, 0033, Երևան
Մարշալ Բաղրամյան պող., 70 շենք",(Արաբկիր վարչ. շրջան),saldepa@ggroup.am
78,https://www.spyur.am//am/companies/easy-pay/34549,«ԻԶԻ ՓԵՅ» սահմանափակ պատասխանատվությամբ ընկերություն (ՍՊԸ),['tel:+37411261261'],"Հայաստան, 0014, Երևան
Ադոնցի փող., 8/171 շենք",(Արաբկիր վարչ. շրջան),info@easypay.am
79,https://www.spyur.am//am/companies/mattech/30562,«ՄԱՏՏԵՔ» սահմանափակ պատասխանատվությամբ ընկերություն (ՍՊԸ),"['tel:+37460650505', 'tel:+37495543003']","Հայաստան, 0037, Երևան
Մարիա Յակոբսենի փող., 9 տուն",(Արաբկիր վարչ. շրջան),info@mattech.am
81,https://www.spyur.am//am/companies/root-itsp/5799,«ՐՈՒԹ ԱՅԹԻԷՍՓԻ» սահմանափակ պատասխանատվությամբ ընկերություն (ՍՊԸ),"['tel:+37410380083', 'tel:+37491242242']","Հայաստան, 0038, Երևան
Հալաբյան փող., 33 շենք",(Աջափնյակ վարչ. շրջան),info@root.am
82,https://www.spyur.am//am/companies/concept-studio-development-and-branding-agency/29132,«ՔՈՆՍԵՓԹ ՍՏՈՒԴԻՈ» ԾՐԱԳՐԱՎՈՐՄԱՆ ԵՎ ԲՐԵՆԴԻՆԳԻ ԳՈՐԾԱԿԱԼՈՒԹՅՈՒՆ,['tel:+37411202311'],"Հայաստան, 0009, Երևան
Վերին Անտառային փող., 11 շենք",(Կենտրոն վարչ. շրջան),info@conceptstudio.am
83,https://www.spyur.am//am/companies/gulian-digital/52314,«ՂՈՒԼՅԱՆ ԴԻՋԻԹԱԼ» սահմանափակ պատասխանատվությամբ ընկերություն (ՍՊԸ),['tel:+37491510350'],"Հայաստան, 0010, Երևան
Արամի փող., 42 շենք",(Կենտրոն վարչ. շրջան),info@gulian.digital
84,https://www.spyur.am//am/companies/shipex/43143,«ՇԻՓԷՔՍ»,['tel:+37411330880'],"Հայաստան, 0009, Երևան
Մաշտոցի պող., 54ա շենք, տարածք 38",(Կենտրոն վարչ. շրջան),support@shipex.am
86,https://www.spyur.am//am/companies/technolab/39278,«ԹԵՔՆՈԼԱԲ»,"['tel:+37498640616', 'tel:+37411556919']","Հայաստան, 0074, Երևան
Արշակունյաց պող., 278 շենք, 5-րդ հարկ, սեն.501",(Շենգավիթ վարչ. շրջան),artem@sadoyan.am
87,https://www.spyur.am//am/companies/ohm-energy/42169,«ՕՀՄ ԷՆԵՐՋԻ» սահմանափակ պատասխանատվությամբ ընկերություն (ՍՊԸ),"['tel:+37411220880', 'tel:+37477245246', 'tel:+37444220881']","Հայաստան, 0070, Երևան
Ալեք Մանուկյան փող., 15ա շենք",(Կենտրոն վարչ. շրջան),info@ohmenergy.am
88,https://www.spyur.am//am/companies/lime-tech/7013,«ԼԱՅՄ ՏԵԽ» սահմանափակ պատասխանատվությամբ ընկերություն (ՍՊԸ),"['tel:+37410202027', 'tel:+37498229967']","Հայաստան, 0033, Երևան
Հակոբ Հակոբյան փող., 3 շենք",(Արաբկիր վարչ. շրջան),info@limetech.am
89,https://www.spyur.am//am/companies/l-four-accounting-center/22063,«ԷԼ ՖՈՐ» ՀԱՇՎԱՊԱՀԱԿԱՆ ԿԵՆՏՐՈՆ սահմանափակ պատասխանատվությամբ ընկերություն (ՍՊԸ),"['tel:+37493516170', 'tel:+37411516170', 'tel:+37499516170', 'tel:+37495516170']","Հայաստան, 0054, Երևան
Անաստաս Միկոյան փող., 2/2 շենք, տարածք 195",(Դավթաշեն վարչ. շրջան),info@L4.am
90,https://www.spyur.am//am/companies/hybrid-solutions/27205,«ՀԻԲՐԻԴ ՍՈԼՅՈՒՇՆՍ» սահմանափակ պատասխանատվությամբ ընկերություն (ՍՊԸ),"['tel:+37460750469', 'tel:+37460750808']","Հայաստան, 0014, Երևան
Հրաչյա Ներսիսյան փող. փակուղի, 1 շենք",(Քանաքեռ-Զեյթուն վարչ. շրջան),mirzoyan@hs.am
91,https://www.spyur.am//am/companies/eic-telecom/29191,"«Ի ԱՅ ՍԻ ՏԵԼԵԿՈՄ» (""EIC TELECOM"")","['tel:+37460499000', 'tel:+37455200022']","Հայաստան, 0012, Երևան
Հրաչյա Քոչարի փող., 15 շենք",(Արաբկիր վարչ. շրջան),info@eic.am
92,https://www.spyur.am//am/companies/impress-accounting-and-consulting-company/31733,«ԻՄՊՐԵՍ» ՀԱՇՎԱՊԱՀԱԿԱՆ ԵՎ ԽՈՐՀՐԴԱՏՎԱԿԱՆ ԾԱՌԱՅՈՒԹՅՈՒՆՆԵՐ ՄԱՏՈՒՑՈՂ ԸՆԿԵՐՈՒԹՅՈՒՆ,"['tel:+37410322434', 'tel:+37491322434']","Հայաստան, 0033, Երևան
Հակոբ Հակոբյան փող., 3/3 շենք, սեն.25 (ԵրՄՄԳՀԻ-ի («Մերգելյանի ինստիտուտի») շենքում)",(Արաբկիր վարչ. շրջան),info@impress.am
93,https://www.spyur.am//am/companies/inet-internet--tv-provider/42662,«ԱՅՆԵՏ» ԻՆՏԵՐՆԵՏ-ԾԱՌԱՅՈՒԹՅՈՒՆՆԵՐԻ ԵՎ ՀԵՌՈՒՍՏԱՏԵՍՈՒԹՅԱՆ ՄԱՏԱԿԱՐԱՐ,"['tel:+37460888000', 'tel:+37410707172', 'tel:+37455707170', 'tel:+37498703372', 'tel:+37499703372']","Հայաստան, 0062, Երևան
Մոլդովական փող., 37/47 շենք",(Նոր Նորք վարչ. շրջան),info@i-net.am
94,https://www.spyur.am//am/companies/ineed-market-product-import-production-and-online-sales-company/39805,"«ԱՅ ՆԻԴ ՄԱՐԿԵԹ» (""ineed market"") ԱՊՐԱՆՔՆԵՐԻ ՆԵՐՄՈՒԾՄԱՆ, ԱՐՏԱԴՐՈՒԹՅԱՆ ԵՎ ՕՆԼԱՅՆ-ՎԱՃԱՌՔԻ ԸՆԿԵՐՈՒԹՅՈՒՆ («ԿՐՈՄԱ ԳՐՈՒՊ» սահմանափակ պատասխանատվությամբ ընկերություն/ՍՊԸ)","['tel:+37411200900', 'tel:+37444200900', 'tel:+37441201900']","Հայաստան, 0051, Երևան
Գրիբոյեդովի փող., 25 շենք",(Արաբկիր վարչ. շրջան),info@ineed.am
96,https://www.spyur.am//am/companies/eliteshopam-online-shop/50228,«ԷԼԻՏԵՇՈՓ.ԷՅԷՄ» ԱՌՑԱՆՑ ԽԱՆՈՒԹ,['tel:+37433091010'],"Հայաստան, 0001, Երևան
Հյուսիսային պող., 1 շենք",(Կենտրոն վարչ. շրջան),info@eliteshop.am
97,https://www.spyur.am//am/companies/questglobal-armenia/52320,«ՔՈՒԵՍԹԳԼՈԲԱԼ ԱՐՄԵՆԻԱ» սահմանափակ պատասխանատվությամբ ընկերություն (ՍՊԸ),['tel:+37498222480'],"Հայաստան, 0009, Երևան
Տերյան փող., 105/1 շենք, 9-րդ հարկ («Ցիտադել» բիզնես-կենտրոնի շենքում)",(Կենտրոն վարչ. շրջան),Support@questrade.com
98,https://www.spyur.am//am/companies/hybuys/50193,«ՀԱՅԲԱՅԶ»,['tel:+37444303319'],"Հայաստան, 0001, Երևան
Սայաթ-Նովայի պող., 25 շենք",(Կենտրոն վարչ. շրջան),info@hybuys.com
99,https://www.spyur.am//am/companies/alltexam-textile-goods-shop-and-online-platform/52656,«ՕԼՏԵՔՍ.ԷՅԷՄ» ՏԵՔՍՏԻԼ ԱՐՏԱԴՐԱՆՔԻ ԽԱՆՈՒԹ ԵՎ ՕՆԼԱՅՆ-ՀԱՐԹԱԿ,"['tel:+37455051555', 'tel:+37494666667']","Հայաստան, 0023, Երևան
Արշակունյաց պող., 17/8 շենք, տաղավար 38 («Շոփինգ Սիթի» առևտրի կենտրոնի տարածքում)",(Կենտրոն վարչ. շրջան),alltexarm@gmail.com
100,https://www.spyur.am//am/companies/dam-soft/45922,«ԴԱՄ ՍՈՖԹ» սահմանափակ պատասխանատվությամբ ընկերություն (ՍՊԸ),"['tel:+37411700041', 'tel:+37444700041', 'tel:+37494455788']","Հայաստան, Երևան",,info@damsoft.am
101,https://www.spyur.am//am/companies/arpinet-telecommunication-company/26008,«ԱՐՓԻՆԵՏ» ՀԵՌԱՀԱՂՈՐԴԱԿՑԱԿԱՆ ԸՆԿԵՐՈՒԹՅՈՒՆ,['tel:+37460888888'],"Հայաստան, 1108, Արմավիրի մարզ, Էջմիածին
Բաղրամյան փող., 22/2 շենք",(Վաղարշապատ համայնք),info@arpinet.am
103,https://www.spyur.am//am/companies/instigate-robotics/31643,«ԻՆՍՏԻԳԵՅԹ ՌՈԲՈՏԻՔՍ» փակ բաժնետիրական ընկերություն (ՓԲԸ),['tel:+37460383809'],"Հայաստան, 0052, Երևան
Ծարավ Աղբյուրի փող., 134/1 շենք",(Քանաքեռ-Զեյթուն վարչ. շրջան),info@instigaterobotics.com
104,https://www.spyur.am//am/companies/wi-media-wi-fi-advertisement-platform/34731,«ՎԻ ՄԵԴԻԱ» WI-FI-ԳՈՎԱԶԴԱՅԻՆ ՀԱՐԹԱԿ սահմանափակ պատասխանատվությամբ ընկերություն (ՍՊԸ),['tel:+37495333191'],"Հայաստան, 0002, Երևան
Եկմալյան փող., 6 շենք, 6-րդ հարկ",(Կենտրոն վարչ. շրջան),info@wimedia.am
105,https://www.spyur.am//am/companies/junior-aleksanyan--sons/35194,«ԿՐՏՍԵՐ ԱԼԵՔՍԱՆՅԱՆ ԵՎ ՈՐԴԻՆԵՐ»,"['tel:+37410461915', 'tel:+37491260363']","Հայաստան, 0086, Երևան
Շիրակի փող., 2-րդ օբյեկտ, բն.28 («Կարմիր բլուր» պոլիկլինիկայի դիմաց)",(Շենգավիթ վարչ. շրջան),info@alekslabs.com
106,https://www.spyur.am//am/companies/actual-solutions/45151,«ԱԿՏՈՒԱԼ ՍՈԼՈՒՇՆՍ» սահմանափակ պատասխանատվությամբ ընկերություն (ՍՊԸ),['tel:+37412300309'],"Հայաստան, Երևան",,info@actualsolutions.am
107,https://www.spyur.am//am/companies/digifence/45641,«ԴԻՋԻՖԵՆՍ» սահմանափակ պատասխանատվությամբ ընկերություն (ՍՊԸ),['tel:+37411484848'],"Հայաստան, 0001, Երևան
Սայաթ-Նովայի պող., 11 շենք, բն.7",(Կենտրոն վարչ. շրջան),info@digifence.am
109,https://www.spyur.am//am/companies/globalgis/30643,«ԳԼՈԲԱԼԳԻՍ» սահմանափակ պատասխանատվությամբ ընկերություն (ՍՊԸ),['tel:+37496445514'],"Հայաստան, 0002, Երևան
Լեոյի փող., 38 շենք",(Կենտրոն վարչ. շրջան),sales@garmin.am
110,https://www.spyur.am//am/companies/dg-consulting-accounting-company/41953,«ԴԻ ՋԻ ՔՈՆՍԱԼԹԻՆԳ» ՀԱՇՎԱՊԱՀԱԿԱՆ ԸՆԿԵՐՈՒԹՅՈՒՆ,"['tel:+37411330004', 'tel:+37498788080']","Հայաստան, 0001, Երևան
Հյուսիսային պող., 5/125 շենք",(Կենտրոն վարչ. շրջան),dgconsulting.team@gmail.com
111,https://www.spyur.am//am/companies/switch-net/32434,«ՍՎԻՉ ՆԵՏ» («ԱՍԲԱՐ» սահմանափակ պատասխանատվությամբ ընկերություն/ՍՊԸ),"['tel:+37410747220', 'tel:+37460617777']","Հայաստան, 0064, Երևան
Րաֆֆու փող., 70/1 շենք",(Մալաթիա-Սեբաստիա վարչ. շրջան),support@it.am
112,https://www.spyur.am//am/companies/internet-communication-networks-and-itv/42509,«ԻՆՏԵՐՆԵՏ ԿՈՄՈՒՆԻԿԱՑԻՈՆ ՑԱՆՑԵՐ ԵՎ ԱՅԹԻՎԻ»,['tel:+37412979700'],"Հայաստան, 0014, Երևան
Մամիկոնյանց փող., 48 շենք",(Արաբկիր վարչ. շրջան),info@icn.am
113,https://www.spyur.am//am/companies/brandon-marketing-and-branding-agency/32064,«ԲՐԵՆԴՈՆ» ՄԱՐԿԵՏԻՆԳԱՅԻՆ ԵՎ ԲՐԵՆԴԻՆԳԱՅԻՆ ԳՈՐԾԱԿԱԼՈՒԹՅՈՒՆ,"['tel:+37455999015', 'tel:+37494997017', 'tel:+37477870090']","Հայաստան, 0014, Երևան
Ազատության պող., 24/15 շենք («Բիզնես Պարկ» բիզնես-կենտրոնի շենքում)",(Քանաքեռ-Զեյթուն վարչ. շրջան),info@brandon.am
115,https://www.spyur.am//am/companies/state-electronic-payment-system/32189,«ՊԵՏԱԿԱՆ ՎՃԱՐՈՒՄՆԵՐԻ ԷԼԵԿՏՐՈՆԱՅԻՆ ՀԱՄԱԿԱՐԳ» (ՀԱՅԱՍՏԱՆԻ ՀԱՆՐԱՊԵՏՈՒԹՅԱՆ ՖԻՆԱՆՍՆԵՐԻ ՆԱԽԱՐԱՐՈՒԹՅՈՒՆ),['tel:+37411910410'],"Հայաստան, Երևան",,e-payment@minfin.am
116,https://www.spyur.am//am/companies/technology-management-center-of-yerevan-city/88665,«ԵՐԵՎԱՆ ՔԱՂԱՔԻ ԿԱՌԱՎԱՐՄԱՆ ՏԵԽՆՈԼՈԳԻԱՆԵՐԻ ԿԵՆՏՐՈՆ» փակ բաժնետիրական ընկերություն (ՓԲԸ) (ԵՐԵՎԱՆԻ ՔԱՂԱՔԱՊԵՏԱՐԱՆ),['tel:+37411514700'],"Հայաստան, 0010, Երևան
Փավստոս Բուզանդի փող., 1/3 շենք, 6-րդ հարկ",(Կենտրոն վարչ. շրջան),tmcyc@yerevan.am
119,https://www.spyur.am//am/companies/link/2057,«ԼԻՆԿ» սահմանափակ պատասխանատվությամբ ընկերություն (ՍՊԸ),"['tel:+37411209100', 'tel:+37455209100']","Հայաստան, 0051, Երևան
Կոմիտասի պող., 49 շենք, 3-րդ հարկ",(Արաբկիր վարչ. շրջան),link_support@link.am
120,https://www.spyur.am//am/companies/hypernet/2794,«ՀԱՅՓԵՐՆԵԹ» սահմանափակ պատասխանատվությամբ ընկերություն (ՍՊԸ),['tel:+37493030730'],"Հայաստան, 0048, Երևան
Ֆուչիկի փող., 27/5 շենք",(Աջափնյակ վարչ. շրջան),info@hypernet.am
121,https://www.spyur.am//am/companies/netsys/2805,"«ՆԵՏՍԻՍ» հայ-ամերիկյան համատեղ ձեռնարկություն, սահմանափակ պատասխանատվությամբ ընկերություն (ՍՊԸ)","['tel:+37410540091', 'tel:+37491009984']","Հայաստան, 0010, Երևան
Հանրապետության փող., 22 շենք",(Կենտրոն վարչ. շրջան),info@netsys.am
124,https://www.spyur.am//am/companies/san-telecom/3299,«ՍԱՆ ՏԵԼԵԿՈՄ» սահմանափակ պատասխանատվությամբ ընկերություն (ՍՊԸ),"['tel:+37460613020', 'tel:+37499350665']","Հայաստան, 0097, Երևան
Նորաշեն (16-րդ թաղամաս), 23 շենք, բն.86",(Աջափնյակ վարչ. շրջան),marketing@oktell.am
125,https://www.spyur.am//am/companies/freenet/4235,«ՖՐԻՆԵՏ»,[],"Հայաստան, 0014, Երևան
Պարույր Սևակի փող., 1 շենք, 4-րդ հարկ (ՀՀ ԳԱԱ տպարանի հարևանությամբ)",(Քանաքեռ-Զեյթուն վարչ. շրջան),freenet@freenet.am
126,https://www.spyur.am//am/companies/smart-systems/4275,«ՍՄԱՐՏ ՍԻՍԹԵՄՍ» սահմանափակ պատասխանատվությամբ ընկերություն (ՍՊԸ),"['tel:+37460650006', 'tel:+37491011395', 'tel:+37491283953', 'tel:+37491006027']","Հայաստան, 0014, Երևան
Պարույր Սևակի փող., 9 շենք",(Քանաքեռ-Զեյթուն վարչ. շրջան),info@smartsystems.am
127,https://www.spyur.am//am/companies/viva-mts/4827,«ՎԻՎԱ-ՄՏՍ» («ՄՏՍ ՀԱՅԱՍՏԱՆ» փակ բաժնետիրական ընկերություն/ՓԲԸ),['tel:+37493297111'],"Հայաստան, 0015, Երևան
Արգիշտիի փող., 4/1 շենք",(Կենտրոն վարչ. շրջան),111@mts.am
129,https://www.spyur.am//am/companies/arvin-kocharian-productions/5395,«ԱՐՎԻՆ ՔՈՉԱՐՅԱՆ ՓՐՈԴԱՔՇՆՍ»,[],"Հայաստան, 0019, Երևան
Մարշալ Բաղրամյան պող., 2 շենք, բն.37",(Կենտրոն վարչ. շրջան),kocharian@gmail.com
130,https://www.spyur.am//am/companies/crossnet-telecommunication-company/5497,«ՔՐՈՍՍՆԵԹ» ՀԵՌԱՀԱՂՈՐԴԱԿՑԱԿԱՆ ԸՆԿԵՐՈՒԹՅՈՒՆ,"['tel:+37460370000', 'tel:+37415500500']","Հայաստան, 0002, Երևան
Սարյան փող., 22 շենք, տարածք 2",(Կենտրոն վարչ. շրջան),cross@cross.am
131,https://www.spyur.am//am/companies/yerevan-telecom-solutions/5546,«ԵՐԵՎԱՆ ՏԵԼԵԿՈՄ ՍՈԼՈՒՇՆՍ» փակ բաժնետիրական ընկերություն (ՓԲԸ),"['tel:+37491240020', 'tel:+37460707020']","Հայաստան, 0025, Երևան
Չարենցի փող., 1 շենք, 5-րդ հարկ, սեն. 512, 514",(Կենտրոն վարչ. շրջան),info@yerevantelecom.am
132,https://www.spyur.am//am/companies/realtime-internet-provider/5571,«ՌԵԱԼ ԹԱՅՄ» ԻՆՏԵՐՆԵՏ-ՊՐՈՎԱՅԴԵՐ,"['tel:+37494195265', 'tel:+37491195265', 'tel:+37455195265']","Հայաստան, 0051, Երևան
Կոմիտասի պող., 49/4 շենք, 12-րդ հարկ",(Արաբկիր վարչ. շրջան),support@realtime.am
133,https://www.spyur.am//am/companies/shah-training-center/5727,«ՇԱՀ» ՈՒՍՈՒՄՆԱԿԱՆ ԿԵՆՏՐՈՆ սահմանափակ պատասխանատվությամբ ընկերություն (ՍՊԸ),"['tel:+37494057535', 'tel:+37426423575']","Հայաստան, 1201, Գեղարքունիքի մարզ, Գավառ
Սայադյան փող., 27 տուն",(Գավառ համայնք),karine.ghajoyan@gmail.com
137,https://www.spyur.am//am/companies/sky-net-internet-provider/6314,«ՍՔԱՅ ՆԵԹ» ԻՆՏԵՐՆԵՏ-ՊՐՈՎԱՅԴԵՐ,"['tel:+37410580510', 'tel:+37491886611']","Հայաստան, Երևան
Մամիկոնյան փող., 48 շենք, 3-րդ հարկ",(Մալաթիա-Սեբաստիա վարչ. շրջան),info@skynet.am
138,https://www.spyur.am//am/companies/e-works-web-design-studio/6444,"«Ի-ՎՈՐԿՍ» ՎԵԲ-ԴԻԶԱՅՆ-ՍՏՈՒԴԻԱ հայ-ֆրանսիական համատեղ ձեռնարկություն, սահմանափակ պատասխանատվությամբ ընկերություն (ՍՊԸ)",['tel:+37491488384'],"Հայաստան, 0015, Երևան
Սուրբ Գրիգոր Լուսավորչի փող., 9 շենք",(Կենտրոն վարչ. շրջան),info@e-works.am
143,https://www.spyur.am//am/companies/actrade-soft/6865,«ԱԿԹՐԵՅԴ-ՍՈՖԹ» սահմանափակ պատասխանատվությամբ ընկերություն (ՍՊԸ),"['tel:+37410229081', 'tel:+37410229082', 'tel:+37499229081', 'tel:+37499229082', 'tel:+37455600666']","Հայաստան, 0019, Երևան
Մարշալ Բաղրամյան պող., 31ա շենք, տարածք 23",(Արաբկիր վարչ. շրջան),info@actrade-soft.com
145,https://www.spyur.am//am/companies/sprint-electronic-marketing-center/7103,«ՍՊՐԻՆՏ» ԷԼԵԿՏՐՈՆԱՅԻՆ ՄԱՐԿԵՏԻՆԳԻ ԿԵՆՏՐՈՆ,['tel:+37477572772'],"Հայաստան, Երևան",,info@sprintcenter.am
146,https://www.spyur.am//am/companies/webex-technologies-software-development-company/20533,«ՎԵԲԷՔՍ ԹԵՔՆՈԼՈՋԻՍ» ԾՐԱԳՐԱՎՈՐՄԱՆ ԸՆԿԵՐՈՒԹՅՈՒՆ սահմանափակ պատասխանատվությամբ ընկերություն (ՍՊԸ),"['tel:+37496101017', 'tel:+37496400073']","Հայաստան, 0033, Երևան
Մարշալ Բաղրամյան պող., 79 շենք, բն.1/1",(Արաբկիր վարչ. շրջան),info@webex.am
148,https://www.spyur.am//am/companies/mer-soft/21007,«ՄԵՐ ՍՈՖԹ» սահմանափակ պատասխանատվությամբ ընկերություն (ՍՊԸ),['tel:+37494355111'],"Հայաստան, 0082, Երևան
Ծիծեռնակաբերդի խճուղի, 1/3 շենք",(Կենտրոն վարչ. շրջան),info@mersoft.am
151,https://www.spyur.am//am/companies/topsoft---solutions-center/22268,«ԹՈՓՍՈՖՏ - ԼՈՒԾՈՒՄՆԵՐԻ ԿԵՆՏՐՈՆ» («ՇԱՆԹ ՔՈՄՓՅՈՒ» սահմանափակ պատասխանատվությամբ ընկերություն/ՍՊԸ),"['tel:+37460612612', 'tel:+37455405126']","Հայաստան, 0014, Երևան
Ադոնցի փող., 13/7 շենք",(Արաբկիր վարչ. շրջան),info@topsoft.am
152,https://www.spyur.am//am/companies/top-print-printing-company/22269,«ԹՈՓ ՓՐԻՆՏ» ՏՊԱԳՐԱԿԱՆ ԸՆԿԵՐՈՒԹՅՈՒՆ,['tel:+37493598003'],"Հայաստան, 0014, Երևան
Ադոնցի փող., 13/7 շենք",(Արաբկիր վարչ. շրջան),info@topprint.am
154,https://www.spyur.am//am/companies/x-tech/22270,«ԴԵՎԵԼՈՓՎԵՅ» փակ բաժնետիրական ընկերություն (ՓԲԸ),['tel:+37493219784'],"Հայաստան, 0009, Երևան
Տերյան փող., 105 շենք",(Կենտրոն վարչ. շրջան),contact@developway.am
167,https://www.spyur.am//am/companies/ogma-applications/25817,«ՕԳՄԱ ԱՓԼԻՔԵՅՇՆՍ» փակ բաժնետիրական ընկերություն (ՓԲԸ),['tel:+37410350360'],"Հայաստան, 0038, Երևան
Աբելյան փող., 6/1 շենք, 3-րդ հարկ, սեն. A-304",(Աջափնյակ վարչ. շրջան),marketing@ogmainc.com
169,https://www.spyur.am//am/companies/best-soft/25931,«ԲԵՍԹ ՍՈՖԹ» փակ բաժնետիրական ընկերություն (ՓԲԸ),['tel:+37410577760'],"Հայաստան, Երևան
Արգիշտիի փող., 11 շենք",(Կենտրոն վարչ. շրջան),info@bestsoft.am
171,https://www.spyur.am//am/companies/cyber-gates/26183,«ՍԱՅԲԵՐ ԳԵՅԹՍ» սահմանափակ պատասխանատվությամբ ընկերություն (ՍՊԸ),['tel:+37496345685'],"Հայաստան, 0088, Երևան
Շիրազի փող., 50 շենք, 8-րդ հարկ, բն.31",(Աջափնյակ վարչ. շրջան),samvel.gevorgyan@cybergates.org
173,https://www.spyur.am//am/companies/gn-systems/26728,«ՋԻԷՆ ՍԻՍԹԵՄՍ» սահմանափակ պատասխանատվությամբ ընկերություն (ՍՊԸ),['tel:+37460460102'],"Հայաստան, 0037, Երևան
Կարապետ Ուլնեցու փող., 31/3 շենք, 7-րդ հարկ, սեն.710",(Քանաքեռ-Զեյթուն վարչ. շրջան),info@gnsystems.am​
174,https://www.spyur.am//am/companies/iguan-systems/27120,«ԻԳՈՒԱՆ ՍԻՍՏԵՄՍ» սահմանափակ պատասխանատվությամբ ընկերություն (ՍՊԸ),['tel:+37498577176'],"Հայաստան, Երևան
Հրաչյա Ներսիսյան փող., 12/10 շենք",(Քանաքեռ-Զեյթուն վարչ. շրջան),hr.iguan@gmail.com
175,https://www.spyur.am//am/companies/vardanyan-design-studio/27478,«ՎԱՐԴԱՆՅԱՆ ԴԻԶԱՅՆ ՍՏՈՒԴԻՈ» սահմանափակ պատասխանատվությամբ ընկերություն (ՍՊԸ),['tel:+37477050504'],"Հայաստան, Կոտայքի մարզ, Ջրվեժ գյուղ
6-րդ փողոց, 35 տուն",(Ջրվեժ համայնք),info@vardanyan.am
176,https://www.spyur.am//am/companies/homenet/27560,«ՀՈՄՆԵԹ» սահմանափակ պատասխանատվությամբ ընկերություն (ՍՊԸ) («ՄԵՋԻՔ ՎԵՅ» սահմանափակ պատասխանատվությամբ ընկերություն/ՍՊԸ),['tel:+37410350209'],"Հայաստան, 0078, Երևան
Ֆուչիկի փող., 25/2 շենք",(Աջափնյակ վարչ. շրջան),info@homenet.am
179,https://www.spyur.am//am/companies/fixit-it-company/27910,«ՖԻՔՍԻԹ ԻԹ ՔՕՄՓԱՆԻ» սահմանափակ պատասխանատվությամբ ընկերություն (ՍՊԸ),"['tel:+37410502474', 'tel:+37493502474']","Հայաստան, 0033, Երևան
Մարշալ Բաղրամյան պող., 79 շենք",(Արաբկիր վարչ. շրջան),armenia-fixit@yandex.com
180,https://www.spyur.am//am/companies/seo-armenia/27929,«ՍԵՈ ԱՐՄԵՆԻԱ»,[],"Հայաստան, 0033, Երևան
Գյուլբենկյան փող., 24 շենք, գրասենյակ 98",(Արաբկիր վարչ. շրջան),info@e-works.am
183,https://www.spyur.am//am/companies/webb-fontaine-holding/28615,«ՎԵԲԲ ՖՈՆՏԵՆ ՀՈԼԴԻՆԳ» սահմանափակ պատասխանատվությամբ ընկերություն (ՍՊԸ),['tel:+37410655657'],"Հայաստան, 0011, Երևան
Արմենակ Արմենակյան փող., 2/5 շենք, 6-րդ հարկ",(Նորք-Մարաշ վարչ. շրջան),contact@webbfontaine.com
184,https://www.spyur.am//am/companies/mobidram-cjsc-subsidiary-company-of-mts-armenia-cjsc/28717,"«ՄՈԲԻԴՐԱՄ» ՓԲԸ, «ՄՏՍ-ՀԱՅԱՍՏԱՆ» ՓԲԸ ԴՈՒՍՏՐ ԸՆԿԵՐՈՒԹՅՈՒՆ",['tel:+37493297333'],"Հայաստան, 0015, Երևան
Արգիշտիի փող., 4/1 շենք",(Կենտրոն վարչ. շրջան),help@mobidram.am
185,https://www.spyur.am//am/companies/fastnet/28852,«ՖԱՍԹՆԵՏ»,['tel:+37410547320'],"Հայաստան, 0010, Երևան
Նալբանդյան փող., 7 շենք, բն.15",(Կենտրոն վարչ. շրջան),info@fastnet.am
186,https://www.spyur.am//am/companies/arm-gps/29088,«ԱՐՄ ՋԻՓԻԷՍ»,['tel:+37494834344'],"Հայաստան, Երևան
Սմբատ Զորավարի փող., 11/2 շենք",(Շենգավիթ վարչ. շրջան),info@armgps.com
187,https://www.spyur.am//am/companies/incript/29102,«ԻՆԿՐԻՊՏ» սահմանափակ պատասխանատվությամբ ընկերություն (ՍՊԸ),['tel:+37460468080'],"Հայաստան, 0014, Երևան
Ադոնցի փող., 10 շենք",(Արաբկիր վարչ. շրջան),info@incript.am
188,https://www.spyur.am//am/companies/arm-gps/29088,«ՄԵԳԱՋԵՔ» ԾՐԱԳՐԱՅԻՆ ԱՊԱՀՈՎՄԱՆ ԸՆԿԵՐՈՒԹՅՈՒՆ,['tel:+37455550599'],"Հայաստան, Երևան
Բաշինջաղյան փող., 181/19 շենք",(Աջափնյակ վարչ. շրջան),info@armgps.com
189,https://www.spyur.am//am/companies/armenian-indian-center-for-excellence-in-information-and-communication-technologies/29171,ՀԱՅ-ՀՆԴԿԱԿԱՆ ՏԵՂԵԿԱՏՎԱԿԱՆ ԵՎ ՀԵՌԱՀԱՂՈՐԴԱԿՑՄԱՆ ՏԵԽՆՈԼՈԳԻԱՆԵՐԻ ԳԵՐԱԶԱՆՑՈՒԹՅԱՆ ԿԵՆՏՐՈՆ,"['tel:+37410556810', 'tel:+37493556810', 'tel:+37499556810', 'tel:+37441556816']","Հայաստան, 0025, Երևան
Ալեք Մանուկյան փող., 1 շենք",(Կենտրոն վարչ. շրջան),info@armindia.am
190,https://www.spyur.am//am/companies/nairisoft-representation-in-armenia/29353,"«ՆԱԻՐԻՍՈՖԹ», ՀԱՅԱՍՏԱՆՅԱՆ ՆԵՐԿԱՅԱՑՈՒՑՉՈՒԹՅՈՒՆ",['tel:+37410209964'],"Հայաստան, 0014, Երևան
Կոմիտասի պող., 60-3 շենք",(Արաբկիր վարչ. շրջան),info@nairisoft.com
192,https://www.spyur.am//am/companies/vip-studio/29503,«ՎԻ ԱՅ ՓԻ ՍՏՈՒԴԻՈ» սահմանափակ պատասխանատվությամբ ընկերություն (ՍՊԸ),['tel:+37491595959'],"Հայաստան, 0010, Երևան
Խանջյան փող., 19 շենք, 3-րդ հարկ, սեն.7",(Կենտրոն վարչ. շրջան),info@vipstudio.am
193,https://www.spyur.am//am/companies/master-web/29547,«ՄԱՍՏԵՐ-ՎԵԲ»,['tel:+37494323255'],"Հայաստան, 0099, Երևան
Լենինգրադյան փող., 23/13 շենք",(Մալաթիա-Սեբաստիա վարչ. շրջան),info@masterweb.am
196,https://www.spyur.am//am/companies/nairi-tech/29879,«ՆԱԻՐԻ-ԹԵՔ» սահմանափակ պատասխանատվությամբ ընկերություն (ՍՊԸ),['tel:+37493540290'],"Հայաստան, Երևան
Արմեն Տիգրանյան փող., 28 տուն",(Քանաքեռ-Զեյթուն վարչ. շրջան),info@nairi-tech.com
200,https://www.spyur.am//am/companies/hoster-gigant-software-development-company/30328,«ՀՈՍԹԵՐ ԳԻԳԱՆՏ» ԾՐԱԳՐԱՅԻՆ ԱՊԱՀՈՎՄԱՆ ՄՇԱԿՄԱՆ ԸՆԿԵՐՈՒԹՅՈՒՆ,['tel:+37477555377'],"Հայաստան, Երևան",,info@hostergigant.net
201,https://www.spyur.am//am/companies/aparg/30330,«ԱՓԱՐԳ»,"['tel:+37491777855', 'tel:+37498779952']","Հայաստան, 0037, Երևան
Կարապետ Ուլնեցու փող., 31/3 շենք",(Քանաքեռ-Զեյթուն վարչ. շրջան),info@aparg.com
203,https://www.spyur.am//am/companies/toolbox/30358,«ԹՈՒԼԲՈՔՍ» սահմանափակ պատասխանատվությամբ ընկերություն (ՍՊԸ),"['tel:+37444700180', 'tel:+37495700180']","Հայաստան, Երևան
Կարապետ Ուլնեցու փող., 58/17 շենք",(Քանաքեռ-Զեյթուն վարչ. շրջան),info@toolbox.am
204,https://www.spyur.am//am/companies/reload/30378,«ՌԵԼՈԱԴ» սահմանափակ պատասխանատվությամբ ընկերություն (ՍՊԸ),['tel:+37477388083'],"Հայաստան, 0043, Երևան
Շարուրի փող., 47/1 շենք",(Շենգավիթ վարչ. շրջան),info@reload.am
207,https://www.spyur.am//am/companies/trio-soft/30777,«ՏՐԻՈ ՍՈՖԹ»,['tel:+37491196686'],"Հայաստան, 0025, Երևան
Չարենցի փող., 1 շենք, 5-րդ հարկ",(Կենտրոն վարչ. շրջան),info@triosoft.am
208,https://www.spyur.am//am/companies/network-builders/30910,«ՆԵԹՎՈՐՔ ԲԻԼԴԵՐՍ» սահմանափակ պատասխանատվությամբ ընկերություն (ՍՊԸ),['tel:+37491226023'],"Հայաստան, 0087, Երևան
Ավանեսովի փող., 5 շենք",(Էրեբունի վարչ. շրջան),info@networkbuilders.am
209,https://www.spyur.am//am/companies/astudio-web-design-and-development-company/31717,«ԱՍՏՈՒԴԻՈ» ՎԵԲ-ԴԻԶԱՅՆԻ ԵՎ ԾՐԱԳՐԱՎՈՐՄԱՆ ԸՆԿԵՐՈՒԹՅՈՒՆ,"['tel:+37477355555', 'tel:+37499355005']","Հայաստան, 0036, Երևան
Հալաբյան փող., 38/15 շենք, 2-րդ հարկ",(Աջափնյակ վարչ. շրջան),info@astudio.am
210,https://www.spyur.am//am/companies/tv-net-cable-tv-company/31887,«ԹԻ ՎԻ ՆԵՏ» ՄԱԼՈՒԽԱՅԻՆ ՀԵՌՈՒՍՏԱԸՆԿԵՐՈՒԹՅՈՒՆ,"['tel:+37460370808', 'tel:+37410370808']","Հայաստան, 0038, Երևան
Էստոնական փող., 12/1 շենք",(Աջափնյակ վարչ. շրջան),tvnetarmenia@gmail.com
212,https://www.spyur.am//am/companies/ifix-group/32041,«ԱՅՖԻՔՍ ԳՐՈՒՊ» սահմանափակ պատասխանատվությամբ ընկերություն (ՍՊԸ),['tel:+37491570150'],"Հայաստան, Երևան
Կոմիտասի պող., 59 շենք",(Արաբկիր վարչ. շրջան),info@ifixgroup.com
214,https://www.spyur.am//am/companies/targsys/32218,«ԹԱՐԳՍԻՍ»,"['tel:+37499509195', 'tel:+37460509191']","Հայաստան, 0005, Երևան
Տիգրան Մեծի պող., 65ա շենք",(Էրեբունի վարչ. շրջան),info@targsys.com
